{"type":"FeatureCollection","name":"shangfangshan_heritage_points","crs":{"type":"name","properties":{"name":"EPSG:4326"}},"features":[{"type":"Feature","id":"SF01","geometry":null,"properties":{"point_id":"SF01","name":"兜率寺天梯","area_status":"山内","location_status":"待刺点"}},{"type":"Feature","id":"SF02","geometry":null,"properties":{"point_id":"SF02","name":"兜率禅寺","area_status":"山内","location_status":"待刺点"}},{"type":"Feature","id":"SF03","geometry":null,"properties":{"point_id":"SF03","name":"文殊殿","area_status":"山内","location_status":"待刺点"}},{"type":"Feature","id":"SF04","geometry":null,"properties":{"point_id":"SF04","name":"普贤殿","area_status":"山内","location_status":"待刺点"}},{"type":"Feature","id":"SF05","geometry":null,"properties":{"point_id":"SF05","name":"观音殿","area_status":"山内","location_status":"待刺点"}},{"type":"Feature","id":"SF06","geometry":null,"properties":{"point_id":"SF06","name":"天香修道禅师塔","area_status":"山内","location_status":"待刺点"}},{"type":"Feature","id":"SF07","geometry":null,"properties":{"point_id":"SF07","name":"百咏南禅师塔","area_status":"山内","location_status":"待考证"}},{"type":"Feature","id":"SF08","geometry":null,"properties":{"point_id":"SF08","name":"明禅师塔","area_status":"山内","location_status":"待考证"}},{"type":"Feature","id":"SF09","geometry":null,"properties":{"point_id":"SF09","name":"拙崖篮和尚塔","area_status":"山内","location_status":"待刺点"}},{"type":"Feature","id":"SF10","geometry":null,"properties":{"point_id":"SF10","name":"忏悔上人塔","area_status":"山内","location_status":"待考证"}},{"type":"Feature","id":"SF11","geometry":null,"properties":{"point_id":"SF11","name":"遐龄益寿禅师塔","area_status":"山内","location_status":"待刺点"}},{"type":"Feature","id":"SF12","geometry":null,"properties":{"point_id":"SF12","name":"崇公和尚塔","area_status":"山内","location_status":"待刺点"}},{"type":"Feature","id":"SF13","geometry":null,"properties":{"point_id":"SF13","name":"孤山银师塔","area_status":"山外","location_status":"待考证"}},{"type":"Feature","id":"SF14","geometry":null,"properties":{"point_id":"SF14","name":"苍林岫师塔","area_status":"山外","location_status":"待考证"}},{"type":"Feature","id":"SF15","geometry":null,"properties":{"point_id":"SF15","name":"道潜真禅师塔","area_status":"山内","location_status":"待考证"}},{"type":"Feature","id":"SF16","geometry":null,"properties":{"point_id":"SF16","name":"穆然普德禅师塔","area_status":"山内","location_status":"待刺点"}},{"type":"Feature","id":"SF17","geometry":null,"properties":{"point_id":"SF17","name":"水月禅师塔","area_status":"山内","location_status":"待刺点"}},{"type":"Feature","id":"SF18","geometry":null,"properties":{"point_id":"SF18","name":"道目禅师","area_status":"山内","location_status":"待考证"}},{"type":"Feature","id":"SF19","geometry":null,"properties":{"point_id":"SF19","name":"大观佛日眼道人","area_status":"山外","location_status":"待考证"}}]}
